STARLINK-4749           
1 53818U 22114A   24164.53295526  .00000026  00000+0  16940-4 0  9990
2 53818  53.2196 249.8565 0001568 100.2755 259.8418 15.17016069 97416
STARLINK-4738           
1 53819U 22114B   24164.58233277 -.00000194  00000+0  58933-5 0  9997
2 53819  53.2164 275.1031 0001137  80.0771 280.0349 15.08834284 96951
STARLINK-4758           
1 53820U 22114C   24164.61550128 -.00000695  00000+0 -25585-4 0  9993
2 53820  53.2181 275.3025 0001108  82.6025 277.5093 15.08835348 96954
STARLINK-4752           
1 53821U 22114D   24164.43193199 -.00000124  00000+0  10302-4 0  9992
2 53821  53.2161 220.7138 0000899  87.6888 272.4207 15.08838536 97707
STARLINK-4748           
1 53823U 22114F   24164.45584384  .00000630  00000+0  57651-4 0  9995
2 53823  53.2160 230.7828 0001360  83.9434 276.1713 15.08837209 97568
STARLINK-4757           
1 53824U 22114G   24164.60442210  .00013601  00000+0  87019-3 0  9996
2 53824  53.2168 275.2333 0001268  88.4603 271.6535 15.08875176 96866
STARLINK-4751           
1 53825U 22114H   24164.54188708 -.00005520  00000+0 -32916-3 0  9998
2 53825  53.2164 275.5557 0001262 102.4134 257.6999 15.08823643 96943
STARLINK-4756           
1 53826U 22114J   24164.58970686  .00001546  00000+0  11527-3 0  9994
2 53826  53.2189 275.1409 0001553  80.6241 279.4927 15.08826390 96958
STARLINK-4764           
1 53827U 22114K   24164.60075726  .00000144  00000+0  27135-4 0  9995
2 53827  53.2174 275.2132 0001279  91.4969 268.6169 15.08830064 96950
STARLINK-4760           
1 53828U 22114L   24164.58602423  .00000896  00000+0  74410-4 0  9995
2 53828  53.2174 275.1212 0000953  87.9150 272.1952 15.08816471 96955
STARLINK-4759           
1 53829U 22114M   24164.59707187  .00000188  00000+0  29930-4 0  9991
2 53829  53.2159 275.1866 0001313  86.8051 273.3092 15.08833672 96953
STARLINK-4761           
1 53830U 22114N   24164.57865148 -.00003426  00000+0 -19735-3 0  9994
2 53830  53.2185 275.0714 0001319  99.2650 260.8492 15.08823319 96956
STARLINK-4649           
1 53831U 22114P   24164.59339092 -.00001046  00000+0 -47629-4 0  9991
2 53831  53.2179 275.1625 0001281  89.3826 270.7313 15.08831961 96959
STARLINK-4747           
1 53832U 22114Q   24164.57127949  .00000309  00000+0  37515-4 0  9998
2 53832  53.2165 275.0269 0001222  92.2850 267.8282 15.08830332 96417
STARLINK-4771           
1 53833U 22114R   24164.58329129 -.00000427  00000+0 -87523-5 0  9992
2 53833  53.2168 275.1005 0001347  89.6612 270.4535 15.08834540 96959
STARLINK-4737           
1 53834U 22114S   24164.63015405 -.00001196  00000+0 -57105-4 0  9994
2 53834  53.2181 274.6865 0001332  78.6594 281.4547 15.08833417 96962
