[{"OBJECT_NAME":"STARLINK-4749","OBJECT_ID":"2022-114A","EPOCH":"2024-06-12T12:47:27.334464","MEAN_MOTION":15.17016069,"ECCENTRICITY":0.0001568,"INCLINATION":53.2196,"RA_OF_ASC_NODE":249.8565,"ARG_OF_PERICENTER":100.2755,"MEAN_ANOMALY":259.8418,"EPHEMERIS_TYPE":0,"CLASSIFICATION_TYPE":"U","NORAD_CAT_ID":53818,"ELEMENT_SET_NO":999,"REV_AT_EPOCH":9741,"BSTAR":1.694e-5,"MEAN_MOTION_DOT":2.6e-7,"MEAN_MOTION_DDOT":0},{"OBJECT_NAME":"STARLINK-4738","OBJECT_ID":"2022-114B","EPOCH":"2024-06-12T13:58:33.551328","MEAN_MOTION":15.08834284,"ECCENTRICITY":0.0001137,"INCLINATION":53.2164,"RA_OF_ASC_NODE":275.1031,"ARG_OF_PERICENTER":80.0771,"MEAN_ANOMALY":280.0349,"EPHEMERIS_TYPE":0,"CLASSIFICATION_TYPE":"U","NORAD_CAT_ID":53819,"ELEMENT_SET_NO":999,"REV_AT_EPOCH":9695,"BSTAR":5.8933e-6,"MEAN_MOTION_DOT":-1.94e-6,"MEAN_MOTION_DDOT":0},{"OBJECT_NAME":"STARLINK-4758","OBJECT_ID":"2022-114C","EPOCH":"2024-06-12T14:46:19.310592","MEAN_MOTION":15.08835348,"ECCENTRICITY":0.0001108,"INCLINATION":53.2181,"RA_OF_ASC_NODE":275.3025,"ARG_OF_PERICENTER":82.6025,"MEAN_ANOMALY":277.5093,"EPHEMERIS_TYPE":0,"CLASSIFICATION_TYPE":"U","NORAD_CAT_ID":53820,"ELEMENT_SET_NO":999,"REV_AT_EPOCH":9695,"BSTAR":-2.5585e-5,"MEAN_MOTION_DOT":-6.95e-6,"MEAN_MOTION_DDOT":0},{"OBJECT_NAME":"STARLINK-4752","OBJECT_ID":"2022-114D","EPOCH":"2024-06-12T10:21:58.923936","MEAN_MOTION":15.08838536,"ECCENTRICITY":8.99e-5,"INCLINATION":53.2161,"RA_OF_ASC_NODE":220.7138,"ARG_OF_PERICENTER":87.6888,"MEAN_ANOMALY":272.4207,"EPHEMERIS_TYPE":0,"CLASSIFICATION_TYPE":"U","NORAD_CAT_ID":53821,"ELEMENT_SET_NO":999,"REV_AT_EPOCH":9770,"BSTAR":1.0302e-5,"MEAN_MOTION_DOT":-1.24e-6,"MEAN_MOTION_DDOT":0},{"OBJECT_NAME":"STARLINK-4748","OBJECT_ID":"2022-114F","EPOCH":"2024-06-12T10:56:24.907776","MEAN_MOTION":15.08837209,"ECCENTRICITY":0.000136,"INCLINATION":53.216,"RA_OF_ASC_NODE":230.7828,"ARG_OF_PERICENTER":83.9434,"MEAN_ANOMALY":276.1713,"EPHEMERIS_TYPE":0,"CLASSIFICATION_TYPE":"U","NORAD_CAT_ID":53823,"ELEMENT_SET_NO":999,"REV_AT_EPOCH":9756,"BSTAR":5.7651e-5,"MEAN_MOTION_DOT":6.3e-6,"MEAN_MOTION_DDOT":0},{"OBJECT_NAME":"STARLINK-4757","OBJECT_ID":"2022-114G","EPOCH":"2024-06-12T14:30:22.069440","MEAN_MOTION":15.08875176,"ECCENTRICITY":0.0001268,"INCLINATION":53.2168,"RA_OF_ASC_NODE":275.2333,"ARG_OF_PERICENTER":88.4603,"MEAN_ANOMALY":271.6535,"EPHEMERIS_TYPE":0,"CLASSIFICATION_TYPE":"U","NORAD_CAT_ID":53824,"ELEMENT_SET_NO":999,"REV_AT_EPOCH":9686,"BSTAR":0.00087019,"MEAN_MOTION_DOT":0.00013601,"MEAN_MOTION_DDOT":0},{"OBJECT_NAME":"STARLINK-4751","OBJECT_ID":"2022-114H","EPOCH":"2024-06-12T13:00:19.043712","MEAN_MOTION":15.08823643,"ECCENTRICITY":0.0001262,"INCLINATION":53.2164,"RA_OF_ASC_NODE":275.5557,"ARG_OF_PERICENTER":102.4134,"MEAN_ANOMALY":257.6999,"EPHEMERIS_TYPE":0,"CLASSIFICATION_TYPE":"U","NORAD_CAT_ID":53825,"ELEMENT_SET_NO":999,"REV_AT_EPOCH":9694,"BSTAR":-0.00032916,"MEAN_MOTION_DOT":-5.52e-5,"MEAN_MOTION_DDOT":0},{"OBJECT_NAME":"STARLINK-4756","OBJECT_ID":"2022-114J","EPOCH":"2024-06-12T14:09:10.672704","MEAN_MOTION":15.0882639,"ECCENTRICITY":0.0001553,"INCLINATION":53.2189,"RA_OF_ASC_NODE":275.1409,"ARG_OF_PERICENTER":80.6241,"MEAN_ANOMALY":279.4927,"EPHEMERIS_TYPE":0,"CLASSIFICATION_TYPE":"U","NORAD_CAT_ID":53826,"ELEMENT_SET_NO":999,"REV_AT_EPOCH":9695,"BSTAR":0.00011527,"MEAN_MOTION_DOT":1.546e-5,"MEAN_MOTION_DDOT":0},{"OBJECT_NAME":"STARLINK-4764","OBJECT_ID":"2022-114K","EPOCH":"2024-06-12T14:25:05.427264","MEAN_MOTION":15.08830064,"ECCENTRICITY":0.0001279,"INCLINATION":53.2174,"RA_OF_ASC_NODE":275.2132,"ARG_OF_PERICENTER":91.4969,"MEAN_ANOMALY":268.6169,"EPHEMERIS_TYPE":0,"CLASSIFICATION_TYPE":"U","NORAD_CAT_ID":53827,"ELEMENT_SET_NO":999,"REV_AT_EPOCH":9695,"BSTAR":2.7135e-5,"MEAN_MOTION_DOT":1.44e-6,"MEAN_MOTION_DDOT":0},{"OBJECT_NAME":"STARLINK-4760","OBJECT_ID":"2022-114L","EPOCH":"2024-06-12T14:03:52.493472","MEAN_MOTION":15.08816471,"ECCENTRICITY":9.53e-5,"INCLINATION":53.2174,"RA_OF_ASC_NODE":275.1212,"ARG_OF_PERICENTER":87.915,"MEAN_ANOMALY":272.1952,"EPHEMERIS_TYPE":0,"CLASSIFICATION_TYPE":"U","NORAD_CAT_ID":53828,"ELEMENT_SET_NO":999,"REV_AT_EPOCH":9695,"BSTAR":7.441e-5,"MEAN_MOTION_DOT":8.96e-6,"MEAN_MOTION_DDOT":0},{"OBJECT_NAME":"STARLINK-4759","OBJECT_ID":"2022-114M","EPOCH":"2024-06-12T14:19:47.009568","MEAN_MOTION":15.08833672,"ECCENTRICITY":0.0001313,"INCLINATION":53.2159,"RA_OF_ASC_NODE":275.1866,"ARG_OF_PERICENTER":86.8051,"MEAN_ANOMALY":273.3092,"EPHEMERIS_TYPE":0,"CLASSIFICATION_TYPE":"U","NORAD_CAT_ID":53829,"ELEMENT_SET_NO":999,"REV_AT_EPOCH":9695,"BSTAR":2.993e-5,"MEAN_MOTION_DOT":1.88e-6,"MEAN_MOTION_DDOT":0},{"OBJECT_NAME":"STARLINK-4761","OBJECT_ID":"2022-114N","EPOCH":"2024-06-12T13:53:15.487872","MEAN_MOTION":15.08823319,"ECCENTRICITY":0.0001319,"INCLINATION":53.2185,"RA_OF_ASC_NODE":275.0714,"ARG_OF_PERICENTER":99.265,"MEAN_ANOMALY":260.8492,"EPHEMERIS_TYPE":0,"CLASSIFICATION_TYPE":"U","NORAD_CAT_ID":53830,"ELEMENT_SET_NO":999,"REV_AT_EPOCH":9695,"BSTAR":-0.00019735,"MEAN_MOTION_DOT":-3.426e-5,"MEAN_MOTION_DDOT":0},{"OBJECT_NAME":"STARLINK-4649","OBJECT_ID":"2022-114P","EPOCH":"2024-06-12T14:14:28.975488","MEAN_MOTION":15.08831961,"ECCENTRICITY":0.0001281,"INCLINATION":53.2179,"RA_OF_ASC_NODE":275.1625,"ARG_OF_PERICENTER":89.3826,"MEAN_ANOMALY":270.7313,"EPHEMERIS_TYPE":0,"CLASSIFICATION_TYPE":"U","NORAD_CAT_ID":53831,"ELEMENT_SET_NO":999,"REV_AT_EPOCH":9695,"BSTAR":-4.7629e-5,"MEAN_MOTION_DOT":-1.046e-5,"MEAN_MOTION_DDOT":0},{"OBJECT_NAME":"STARLINK-4747","OBJECT_ID":"2022-114Q","EPOCH":"2024-06-12T13:42:38.547936","MEAN_MOTION":15.08830332,"ECCENTRICITY":0.0001222,"INCLINATION":53.2165,"RA_OF_ASC_NODE":275.0269,"ARG_OF_PERICENTER":92.285,"MEAN_ANOMALY":267.8282,"EPHEMERIS_TYPE":0,"CLASSIFICATION_TYPE":"U","NORAD_CAT_ID":53832,"ELEMENT_SET_NO":999,"REV_AT_EPOCH":9641,"BSTAR":3.7515e-5,"MEAN_MOTION_DOT":3.09e-6,"MEAN_MOTION_DDOT":0},{"OBJECT_NAME":"STARLINK-4771","OBJECT_ID":"2022-114R","EPOCH":"2024-06-12T13:59:56.367456","MEAN_MOTION":15.0883454,"ECCENTRICITY":0.0001347,"INCLINATION":53.2168,"RA_OF_ASC_NODE":275.1005,"ARG_OF_PERICENTER":89.6612,"MEAN_ANOMALY":270.4535,"EPHEMERIS_TYPE":0,"CLASSIFICATION_TYPE":"U","NORAD_CAT_ID":53833,"ELEMENT_SET_NO":999,"REV_AT_EPOCH":9695,"BSTAR":-8.7523e-6,"MEAN_MOTION_DOT":-4.27e-6,"MEAN_MOTION_DDOT":0},{"OBJECT_NAME":"STARLINK-4737","OBJECT_ID":"2022-114S","EPOCH":"2024-06-12T15:07:25.309920","MEAN_MOTION":15.08833417,"ECCENTRICITY":0.0001332,"INCLINATION":53.2181,"RA_OF_ASC_NODE":274.6865,"ARG_OF_PERICENTER":78.6594,"MEAN_ANOMALY":281.4547,"EPHEMERIS_TYPE":0,"CLASSIFICATION_TYPE":"U","NORAD_CAT_ID":53834,"ELEMENT_SET_NO":999,"REV_AT_EPOCH":9696,"BSTAR":-5.7105e-5,"MEAN_MOTION_DOT":-1.196e-5,"MEAN_MOTION_DDOT":0}]
